NORAD_CAT_ID,OBJECT_NAME,OBJECT_TYPE,EPOCH,MEAN_MOTION,ECCENTRICITY,INCLINATION,RA_OF_ASC_NODE,ARG_OF_PERICENTER,MEAN_ANOMALY,BSTAR,MEAN_MOTION_DOT,MEAN_MOTION_DDOT,TLE_LINE0,TLE_LINE1,TLE_LINE2,SEMIMAJOR_AXIS,PERIOD,APOGEE,PERIGEE,DECAYED
51148.0,STARLINK-3359,PAYLOAD,2022-11-02 13:20:27,15.08819714,0.0001955999999999,53.2188,39.9819,34.8935,325.2185,-4.0937e-05,-9.39e-06,0.0,0 STARLINK-3359,1 51148U 22005AW  22306.55587719 -.00000939  00000-0 -40937-4 0  9998,2 51148  53.2188  39.9819 0001956  34.8935 325.2185 15.08819714 45054,6917.941999999999,95.439,541.161,538.4540000000002,0.0
51148.0,STARLINK-3359,PAYLOAD,2022-11-03 02:03:27,15.08906069,0.0002185,53.2188,37.6034,14.6877,345.4178,0.00046778,7.178e-05,0.0,0 STARLINK-3359,1 51148U 22005AW  22307.08573769  .00007178  00000-0  46778-3 0  9995,2 51148  53.2188  37.6034 0002185  14.6877 345.4178 15.08906069 45139,6917.678000000001,95.433,541.055,538.0319999999998,0.0
51148.0,STARLINK-3359,PAYLOAD,2022-11-03 11:35:51,15.08834721,0.0002046,53.2193,35.821,36.0265,324.0865,7.500100000000001e-05,9.05e-06,0.0,0 STARLINK-3359,1 51148U 22005AW  22307.48323221  .00000905  00000-0  75001-4 0  9998,2 51148  53.2193  35.8210 0002046  36.0265 324.0865 15.08834721 45193,6917.897,95.438,541.177,538.346,0.0
51148.0,STARLINK-3359,PAYLOAD,2022-11-04 01:54:18,15.08852581,0.0002009,53.2193,33.1438,32.7608,327.3508,0.00020453,2.97e-05,0.0,0 STARLINK-3359,1 51148U 22005AW  22308.07937549  .00002970  00000-0  20453-3 0  9992,2 51148  53.2193  33.1438 0002009  32.7608 327.3508 15.08852581 45283,6917.842,95.437,541.097,538.317,0.0
51148.0,STARLINK-3359,PAYLOAD,2022-11-04 09:51:13,15.08848886,0.0002025,53.2189,31.6557,33.5766,326.5354,0.00020121,2.916e-05,0.0,0 STARLINK-3359,1 51148U 22005AW  22308.41057736  .00002916  00000-0  20121-3 0  9993,2 51148  53.2189  31.6557 0002025  33.5766 326.5354 15.08848886 44221,6917.853,95.437,541.119,538.317,0.0
51148.0,STARLINK-3359,PAYLOAD,2022-11-04 14:37:23,15.08842346,0.0002488,53.2193,30.7664,24.104,336.0068,0.00015292,2.146e-05,0.0,0 STARLINK-3359,1 51148U 22005AW  22308.60930401  .00002146  00000-0  15292-3 0  9991,2 51148  53.2193  30.7664 0002488  24.1040 336.0068 15.08842346 45368,6917.873000000001,95.437,541.4590000000002,538.0169999999998,0.0
51148.0,STARLINK-3359,PAYLOAD,2022-11-05 01:45:06,15.08836954,0.0001865,53.2191,28.6817,38.3006,321.8119,8.835800000000001e-06,-1.48e-06,0.0,0 STARLINK-3359,1 51148U 22005AW  22309.07298979 -.00000148  00000-0  88358-5 0  9996,2 51148  53.2191  28.6817 0001865  38.3006 321.8119 15.08836954 45434,6917.89,95.438,541.045,538.465,0.0
51148.0,STARLINK-3359,PAYLOAD,2022-11-05 09:42:04,15.08809863,0.000179,53.219,27.1962,37.8928,322.219,-0.00022072,-3.796e-05,0.0,0 STARLINK-3359,1 51148U 22005AW  22309.40421450 -.00003796  00000-0 -22072-3 0  9997,2 51148  53.2190  27.1962 0001790  37.8928 322.2190 15.08809863 45480,6917.973000000001,95.439,541.076,538.599,0.0
51148.0,STARLINK-3359,PAYLOAD,2022-11-06 01:35:54,15.08832547,0.0001665999999999,53.2197,24.2199,33.2543,326.8554,-0.00013226,-2.392e-05,0.0,0 STARLINK-3359,1 51148U 22005AW  22310.06660059 -.00002392  00000-0 -13226-3 0  9993,2 51148  53.2197  24.2199 0001666  33.2543 326.8554 15.08832547 45582,6917.903,95.438,540.9209999999998,538.616,0.0
51148.0,STARLINK-3359,PAYLOAD,2022-11-06 12:43:36,15.0883434,0.0002152,53.2191,22.1408,33.7141,326.3987,-0.00010398,-1.943e-05,0.0,0 STARLINK-3359,1 51148U 22005AW  22310.53028197 -.00001943  00000-0 -10398-3 0  9994,2 51148  53.2191  22.1408 0002152  33.7141 326.3987 15.08834340 44549,6917.898,95.438,541.251,538.274,0.0
51148.0,STARLINK-3359,PAYLOAD,2022-11-07 01:26:41,15.08831942,0.0001861,53.2195,19.7609,30.4288,329.6812,6.9042e-05,8.11e-06,0.0,0 STARLINK-3359,1 51148U 22005AW  22311.06019945  .00000811  00000-0  69042-4 0  9996,2 51148  53.2195  19.7609 0001861  30.4288 329.6812 15.08831942 45730,6917.905,95.438,541.057,538.4830000000002,0.0
51148.0,STARLINK-3359,PAYLOAD,2022-11-07 14:09:46,15.08835192,0.0002069,53.2184,17.3825,36.5056,323.6077,0.00013091,1.796e-05,0.0,0 STARLINK-3359,1 51148U 22005AW  22311.59012025  .00001796  00000-0  13091-3 0  9991,2 51148  53.2184  17.3825 0002069  36.5056 323.6077 15.08835192 44707,6917.895,95.438,541.191,538.3290000000002,0.0
51148.0,STARLINK-3359,PAYLOAD,2022-11-08 01:17:27,15.08851921,0.0002244,53.2187,15.3032,33.3486,326.7647,0.00021814,3.186e-05,0.0,0 STARLINK-3359,1 51148U 22005AW  22312.05378977  .00003186  00000-0  21814-3 0  9991,2 51148  53.2187  15.3032 0002244  33.3486 326.7647 15.08851921 45880,6917.844,95.437,541.261,538.1569999999998,0.0
51148.0,STARLINK-3359,PAYLOAD,2022-11-08 09:14:22,15.08856669,0.0002174,53.2187,13.816,34.3439,325.7694,0.00028239,4.211e-05,0.0,0 STARLINK-3359,1 51148U 22005AW  22312.38498486  .00004211  00000-0  28239-3 0  9993,2 51148  53.2187  13.8160 0002174  34.3439 325.7694 15.08856669 44824,6917.829000000002,95.437,541.198,538.191,0.0
51148.0,STARLINK-3359,PAYLOAD,2022-11-09 02:43:36,15.08866128,0.0004342,53.2193,10.545,12.0949,348.0147,0.00037934,5.758e-05,0.0,0 STARLINK-3359,1 51148U 22005AW  22313.11362040  .00005758  00000-0  37934-3 0  9990,2 51148  53.2193  10.5450 0004342  12.0949 348.0147 15.08866128 46043,6917.801,95.436,542.669,536.6619999999998,0.0
51148.0,STARLINK-3359,PAYLOAD,2022-11-09 10:40:33,15.08830307,0.0002289,53.2189,9.058,34.3431,325.7708,-0.00027119,-4.601e-05,0.0,0 STARLINK-3359,1 51148U 22005AW  22313.44483004 -.00004601  00000-0 -27119-3 0  9992,2 51148  53.2189   9.0580 0002289  34.3431 325.7708 15.08830307 44982,6917.91,95.438,541.359,538.192,0.0
51148.0,STARLINK-3359,PAYLOAD,2022-11-10 10:31:19,15.08837059,0.0002379,53.2178,4.5983,35.2336,324.8813,-0.00024779,-4.23e-05,0.0,0 STARLINK-3359,1 51148U 22005AW  22314.43842448 -.00004230  00000-0 -24779-3 0  9990,2 51148  53.2178   4.5983 0002379  35.2336 324.8813 15.08837059 45137,6917.889,95.438,541.4,538.109,0.0
51148.0,STARLINK-3359,PAYLOAD,2022-11-10 13:42:06,15.08838074,0.0002282,53.2176,4.0032,40.6682,319.4481,-0.00014428,-2.584e-05,0.0,0 STARLINK-3359,1 51148U 22005AW  22314.57090365 -.00002584  00000-0 -14428-3 0  9998,2 51148  53.2176   4.0032 0002282  40.6682 319.4481 15.08838074 46266,6917.886,95.438,541.33,538.173,0.0
51148.0,STARLINK-3359,PAYLOAD,2022-11-11 04:00:35,15.0882288,0.0002185,53.219,1.3267,34.5023,325.611,-0.00010249,-1.918e-05,0.0,0 STARLINK-3359,1 51148U 22005AW  22315.16707492 -.00001918  00000-0 -10249-3 0  9997,2 51148  53.2190   1.3267 0002185  34.5023 325.6110 15.08822880 46351,6917.933000000001,95.439,541.309,538.286,0.0
51148.0,STARLINK-3359,PAYLOAD,2022-11-11 10:22:08,15.08817059,0.0002359,53.2179,0.1373,36.7165,323.3988,-0.00011904,-2.181e-05,0.0,0 STARLINK-3359,1 51148U 22005AW  22315.43204189 -.00002181  00000-0 -11904-3 0  9994,2 51148  53.2179   0.1373 0002359  36.7165 323.3988 15.08817059 45288,6917.951,95.439,541.447,538.184,0.0
51148.0,STARLINK-3359,PAYLOAD,2022-11-11 19:54:27,15.08820404,0.0002488,53.218,358.353,37.8462,322.2705,0.00028178,4.197e-05,0.0,0 STARLINK-3359,1 51148U 22005AW  22315.82948879  .00004197  00000-0  28178-3 0  9996,2 51148  53.2180 358.3530 0002488  37.8462 322.2705 15.08820404 45348,6917.94,95.439,541.526,538.0840000000002,0.0
51148.0,STARLINK-3359,PAYLOAD,2022-11-12 03:51:23,15.08843091,0.00024,53.2173,356.8665,39.2643,320.8523,0.00079665,0.00012415,0.0,0 STARLINK-3359,1 51148U 22005AW  22316.16068615  .00012415  00000-0  79665-3 0  9994,2 51148  53.2173 356.8665 0002400  39.2643 320.8523 15.08843091 46501,6917.871,95.437,541.396,538.076,0.0
51148.0,STARLINK-3359,PAYLOAD,2022-11-12 10:12:55,15.08854752,0.0002388,53.2172,355.6771,39.3735,320.743,0.0012804,0.00020157,0.0,0 STARLINK-3359,1 51148U 22005AW  22316.42564554  .00020157  00000-0  12804-2 0  9999,2 51148  53.2172 355.6771 0002388  39.3735 320.7430 15.08854752 45436,6917.835,95.437,541.352,538.048,0.0
51148.0,STARLINK-3359,PAYLOAD,2022-11-12 19:45:14,15.08864474,0.0002514,53.217,353.8932,38.8021,321.3151,0.0009766,0.00015299,0.0,0 STARLINK-3359,1 51148U 22005AW  22316.82308032  .00015299  00000-0  97660-3 0  9995,2 51148  53.2170 353.8932 0002514  38.8021 321.3151 15.08864474 45491,6917.806,95.436,541.41,537.931,0.0
51148.0,STARLINK-3359,PAYLOAD,2022-11-13 02:06:46,15.08850882,0.000225,53.2174,352.7031,35.3849,324.7292,0.00019337,2.791e-05,0.0,0 STARLINK-3359,1 51148U 22005AW  22317.08803841  .00002791  00000-0  19337-3 0  9990,2 51148  53.2174 352.7031 0002250  35.3849 324.7292 15.08850882 46649,6917.847,95.437,541.269,538.156,0.0
51148.0,STARLINK-3359,PAYLOAD,2022-11-13 11:39:06,15.08834517,0.0002864,53.2176,350.9212,31.8308,328.2857,-4.3741000000000014e-05,-9.85e-06,0.0,0 STARLINK-3359,1 51148U 22005AW  22317.48548647 -.00000985  00000-0 -43741-4 0  9996,2 51148  53.2176 350.9212 0002864  31.8308 328.2857 15.08834517 46704,6917.897,95.438,541.743,537.781,0.0
51148.0,STARLINK-3359,PAYLOAD,2022-11-14 08:19:08,15.08814447,0.00024,53.2172,347.0543,31.7521,328.3616,-0.00029287,-4.943e-05,0.0,0 STARLINK-3359,1 51148U 22005AW  22318.34662263 -.00004943  00000-0 -29287-3 0  9999,2 51148  53.2172 347.0543 0002400  31.7521 328.3616 15.08814447 46834,6917.958000000001,95.439,541.484,538.163,0.0
51148.0,STARLINK-3359,PAYLOAD,2022-11-14 11:29:53,15.08837535,0.0002579,53.217,346.4601,33.5572,326.5583,0.00019625,2.836e-05,0.0,0 STARLINK-3359,1 51148U 22005AW  22318.47909675  .00002836  00000-0  19625-3 0  9996,2 51148  53.2170 346.4601 0002579  33.5572 326.5583 15.08837535 45748,6917.888000000001,95.438,541.5369999999998,537.969,0.0
51148.0,STARLINK-3359,PAYLOAD,2022-11-14 19:26:49,15.08838141,0.000252,53.2161,344.9711,47.4205,312.7,0.00045239,6.919e-05,0.0,0 STARLINK-3359,1 51148U 22005AW  22318.81030005  .00006919  00000-0  45239-3 0  9992,2 51148  53.2161 344.9711 0002520  47.4205 312.7000 15.08838141 46900,6917.886,95.438,541.494,538.008,0.0
